[{"OBJECT_NAME":"6GSTARLAB","OBJECT_ID":"2025-276T","EPOCH":"2026-03-09T17:24:27.161568","MEAN_MOTION":15.17770534,"ECCENTRICITY":0.00054902,"INCLINATION":97.4314,"RA_OF_ASC_NODE":143.9369,"ARG_OF_PERICENTER":357.076,"MEAN_ANOMALY":3.044,"EPHEMERIS_TYPE":0,"CLASSIFICATION_TYPE":"U","NORAD_CAT_ID":66683,"ELEMENT_SET_NO":999,"REV_AT_EPOCH":1531,"BSTAR":0.00019396576,"MEAN_MOTION_DOT":3.852e-5,"MEAN_MOTION_DDOT":0},{"OBJECT_NAME":"OKEAN-2","OBJECT_ID":"1990-018A","EPOCH":"2026-03-09T23:36:10.183680","MEAN_MOTION":15.15649196,"ECCENTRICITY":0.00049727,"INCLINATION":82.5017,"RA_OF_ASC_NODE":331.5686,"ARG_OF_PERICENTER":303.4328,"MEAN_ANOMALY":67.9927,"EPHEMERIS_TYPE":0,"CLASSIFICATION_TYPE":"U","NORAD_CAT_ID":20510,"ELEMENT_SET_NO":999,"REV_AT_EPOCH":93903,"BSTAR":0.00028442133,"MEAN_MOTION_DOT":5.437e-5,"MEAN_MOTION_DDOT":0}]
